{"type": "FeatureCollection", "features": [ {"type": "Feature", "properties": {"norad_id": 34875, "name": "COSMOS 2251 DEB", "group": "cosmos-2251-debris", "lat": -54.0720693496903, "lon": -16.779098799385093, "alt_km": 725.2929081272005, "timestamp": "2025-12-22T11:33:20.835427+00:00", "meta": {"OBJECT_NAME": "COSMOS 2251 DEB", "OBJECT_ID": "1993-036ACN", "EPOCH": "2025-12-19T11:28:39.014112", "MEAN_MOTION": 14.48947014, "ECCENTRICITY": 0.0016196, "INCLINATION": 74.0433, "RA_OF_ASC_NODE": 145.5897, "ARG_OF_PERICENTER": 268.763, "MEAN_ANOMALY": 149.3216, "EPHEMERIS_TYPE": 0, "CLASSIFICATION_TYPE": "U", "NORAD_CAT_ID": 34875, "ELEMENT_SET_NO": 999, "REV_AT_EPOCH": 87853, "BSTAR": 0.00033791, "MEAN_MOTION_DOT": 1.255e-05, "MEAN_MOTION_DDOT": 0}, "tle": {"line1": "1 34875U 93036ACN 25353.47822933  .00001255  00000+0  33791-3 0  9992", "line2": "2 34875  74.0433 145.5897 0016196 268.7630 149.3216 14.48947014878533"}}, "geometry": {"type": "Point", "coordinates": [-16.779098799385093, -54.0720693496903]}}, {"type": "Feature", "properties": {"norad_id": 34878, "name": "COSMOS 2251 DEB", "group": "cosmos-2251-debris", "lat": -63.86229913686562, "lon": -4.009402165745833, "alt_km": 1044.2505917444196, "timestamp": "2025-12-22T11:33:20.835437+00:00", "meta": {"OBJECT_NAME": "COSMOS 2251 DEB", "OBJECT_ID": "1993-036ACR", "EPOCH": "2025-12-21T20:42:06.269184", "MEAN_MOTION": 13.44202335, "ECCENTRICITY": 0.0435641, "INCLINATION": 73.9646, "RA_OF_ASC_NODE": 32.8499, "ARG_OF_PERICENTER": 14.5745, "MEAN_ANOMALY": 167.3818, "EPHEMERIS_TYPE": 0, "CLASSIFICATION_TYPE": "U", "NORAD_CAT_ID": 34878, "ELEMENT_SET_NO": 999, "REV_AT_EPOCH": 81395, "BSTAR": 0.00060891, "MEAN_MOTION_DOT": 6.05e-06, "MEAN_MOTION_DDOT": 0}, "tle": {"line1": "1 34878U 93036ACR 25355.86257256  .00000605  00000+0  60891-3 0  9999", "line2": "2 34878  73.9646  32.8499 0435641  14.5745 167.3818 13.44202335813958"}}, "geometry": {"type": "Point", "coordinates": [-4.009402165745833, -63.86229913686562]}}, {"type": "Feature", "properties": {"norad_id": 34882, "name": "COSMOS 2251 DEB", "group": "cosmos-2251-debris", "lat": -72.80013806974786, "lon": 94.51359954540197, "alt_km": 672.4928294366064, "timestamp": "2025-12-22T11:33:20.835447+00:00", "meta": {"OBJECT_NAME": "COSMOS 2251 DEB", "OBJECT_ID": "1993-036ACV", "EPOCH": "2025-12-21T21:12:22.856832", "MEAN_MOTION": 14.61612443, "ECCENTRICITY": 0.0083289, "INCLINATION": 74.045, "RA_OF_ASC_NODE": 208.1086, "ARG_OF_PERICENTER": 332.8395, "MEAN_ANOMALY": 26.8425, "EPHEMERIS_TYPE": 0, "CLASSIFICATION_TYPE": "U", "NORAD_CAT_ID": 34882, "ELEMENT_SET_NO": 999, "REV_AT_EPOCH": 88658, "BSTAR": 0.00011852, "MEAN_MOTION_DOT": 5.86e-06, "MEAN_MOTION_DDOT": 0}, "tle": {"line1": "1 34882U 93036ACV 25355.88359788  .00000586  00000+0  11852-3 0  9990", "line2": "2 34882  74.0450 208.1086 0083289 332.8395  26.8425 14.61612443886589"}}, "geometry": {"type": "Point", "coordinates": [94.51359954540197, -72.80013806974786]}}, {"type": "Feature", "properties": {"norad_id": 34883, "name": "COSMOS 2251 DEB", "group": "cosmos-2251-debris", "lat": -34.82320384022847, "lon": 33.20331137141101, "alt_km": 732.0011392307861, "timestamp": "2025-12-22T11:33:20.835457+00:00", "meta": {"OBJECT_NAME": "COSMOS 2251 DEB", "OBJECT_ID": "1993-036ACW", "EPOCH": "2025-12-18T13:27:07.209504", "MEAN_MOTION": 14.51672805, "ECCENTRICITY": 0.00951028, "INCLINATION": 74.2022, "RA_OF_ASC_NODE": 51.868, "ARG_OF_PERICENTER": 236.3156, "MEAN_ANOMALY": 122.8912, "EPHEMERIS_TYPE": 0, "CLASSIFICATION_TYPE": "U", "NORAD_CAT_ID": 34883, "ELEMENT_SET_NO": 999, "REV_AT_EPOCH": 86524, "BSTAR": 0.0028915699, "MEAN_MOTION_DOT": 0.00012297, "MEAN_MOTION_DDOT": 0}, "tle": {"line1": "1 34883U 93036ACW 25352.56050011  .00012297  00000+0  28916-2 0  9990", "line2": "2 34883  74.2022  51.8680 0095102 236.3156 122.8912 14.51672805865245"}}, "geometry": {"type": "Point", "coordinates": [33.20331137141101, -34.82320384022847]}}, {"type": "Feature", "properties": {"norad_id": 34884, "name": "COSMOS 2251 DEB", "group": "cosmos-2251-debris", "lat": 9.086773600410352, "lon": -145.40792535451376, "alt_km": 599.1970250378909, "timestamp": "2025-12-22T11:33:20.835467+00:00", "meta": {"OBJECT_NAME": "COSMOS 2251 DEB", "OBJECT_ID": "1993-036ACX", "EPOCH": "2025-12-21T14:24:44.756928", "MEAN_MOTION": 14.90421779, "ECCENTRICITY": 0.0002788, "INCLINATION": 74.0169, "RA_OF_ASC_NODE": 38.9847, "ARG_OF_PERICENTER": 42.2579, "MEAN_ANOMALY": 83.2158, "EPHEMERIS_TYPE": 0, "CLASSIFICATION_TYPE": "U", "NORAD_CAT_ID": 34884, "ELEMENT_SET_NO": 999, "REV_AT_EPOCH": 87937, "BSTAR": 0.0017845, "MEAN_MOTION_DOT": 0.00017403, "MEAN_MOTION_DDOT": 0}, "tle": {"line1": "1 34884U 93036ACX 25355.60051802  .00017403  00000+0  17845-2 0  9991", "line2": "2 34884  74.0169  38.9847 0002788  42.2579  83.2158 14.90421779879374"}}, "geometry": {"type": "Point", "coordinates": [-145.40792535451376, 9.086773600410352]}}, {"type": "Feature", "properties": {"norad_id": 34885, "name": "COSMOS 2251 DEB", "group": "cosmos-2251-debris", "lat": 39.60926683724166, "lon": -29.029669830917776, "alt_km": 721.1239183205662, "timestamp": "2025-12-22T11:33:20.835477+00:00", "meta": {"OBJECT_NAME": "COSMOS 2251 DEB", "OBJECT_ID": "1993-036ACY", "EPOCH": "2025-12-21T20:33:37.016352", "MEAN_MOTION": 14.51546235, "ECCENTRICITY": 0.0015102, "INCLINATION": 74.0299, "RA_OF_ASC_NODE": 165.855, "ARG_OF_PERICENTER": 251.2816, "MEAN_ANOMALY": 223.5837, "EPHEMERIS_TYPE": 0, "CLASSIFICATION_TYPE": "U", "NORAD_CAT_ID": 34885, "ELEMENT_SET_NO": 999, "REV_AT_EPOCH": 87611, "BSTAR": 0.00056379, "MEAN_MOTION_DOT": 2.232e-05, "MEAN_MOTION_DDOT": 0}, "tle": {"line1": "1 34885U 93036ACY 25355.85667843  .00002232  00000+0  56379-3 0  9997", "line2": "2 34885  74.0299 165.8550 0015102 251.2816 223.5837 14.51546235876114"}}, "geometry": {"type": "Point", "coordinates": [-29.029669830917776, 39.60926683724166]}}, {"type": "Feature", "properties": {"norad_id": 34886, "name": "COSMOS 2251 DEB", "group": "cosmos-2251-debris", "lat": 53.46023672793474, "lon": -177.28320455051752, "alt_km": 435.7980882700813, "timestamp": "2025-12-22T11:33:20.835487+00:00", "meta": {"OBJECT_NAME": "COSMOS 2251 DEB", "OBJECT_ID": "1993-036ACZ", "EPOCH": "2025-12-19T05:20:10.106016", "MEAN_MOTION": 15.39455892, "ECCENTRICITY": 0.0031395, "INCLINATION": 73.9504, "RA_OF_ASC_NODE": 166.9286, "ARG_OF_PERICENTER": 349.772, "MEAN_ANOMALY": 10.2844, "EPHEMERIS_TYPE": 0, "CLASSIFICATION_TYPE": "U", "NORAD_CAT_ID": 34886, "ELEMENT_SET_NO": 999, "REV_AT_EPOCH": 63098, "BSTAR": 0.0012728, "MEAN_MOTION_DOT": 0.00051055, "MEAN_MOTION_DDOT": 0}, "tle": {"line1": "1 34886U 93036ACZ 25353.22233919  .00051055  00000+0  12728-2 0  9996", "line2": "2 34886  73.9504 166.9286 0031395 349.7720  10.2844 15.39455892630986"}}, "geometry": {"type": "Point", "coordinates": [-177.28320455051752, 53.46023672793474]}}, {"type": "Feature", "properties": {"norad_id": 34907, "name": "COSMOS 2251 DEB", "group": "cosmos-2251-debris", "lat": -73.95120065502597, "lon": -64.35953847493849, "alt_km": 414.86749635034175, "timestamp": "2025-12-22T11:33:20.835497+00:00", "meta": {"OBJECT_NAME": "COSMOS 2251 DEB", "OBJECT_ID": "1993-036ADC", "EPOCH": "2025-12-21T12:42:42.511680", "MEAN_MOTION": 15.49920012, "ECCENTRICITY": 0.0018559, "INCLINATION": 73.9666, "RA_OF_ASC_NODE": 29.1312, "ARG_OF_PERICENTER": 328.4772, "MEAN_ANOMALY": 31.5327, "EPHEMERIS_TYPE": 0, "CLASSIFICATION_TYPE": "U", "NORAD_CAT_ID": 34907, "ELEMENT_SET_NO": 999, "REV_AT_EPOCH": 88109, "BSTAR": 0.006372, "MEAN_MOTION_DOT": 0.00375951, "MEAN_MOTION_DDOT": 0}, "tle": {"line1": "1 34907U 93036ADC 25355.52965870  .00375951  00000+0  63720-2 0  9995", "line2": "2 34907  73.9666  29.1312 0018559 328.4772  31.5327 15.49920012881091"}}, "geometry": {"type": "Point", "coordinates": [-64.35953847493849, -73.95120065502597]}}, {"type": "Feature", "properties": {"norad_id": 34908, "name": "COSMOS 2251 DEB", "group": "cosmos-2251-debris", "lat": 61.119446894836386, "lon": 36.96723115334703, "alt_km": 740.8210299703724, "timestamp": "2025-12-22T11:33:20.835507+00:00", "meta": {"OBJECT_NAME": "COSMOS 2251 DEB", "OBJECT_ID": "1993-036ADD", "EPOCH": "2025-12-21T19:23:25.564128", "MEAN_MOTION": 14.37423542, "ECCENTRICITY": 0.0040488, "INCLINATION": 74.0578, "RA_OF_ASC_NODE": 6.9921, "ARG_OF_PERICENTER": 20.3399, "MEAN_ANOMALY": 160.9032, "EPHEMERIS_TYPE": 0, "CLASSIFICATION_TYPE": "U", "NORAD_CAT_ID": 34908, "ELEMENT_SET_NO": 999, "REV_AT_EPOCH": 87409, "BSTAR": 0.00042947, "MEAN_MOTION_DOT": 1.27e-05, "MEAN_MOTION_DDOT": 0}, "tle": {"line1": "1 34908U 93036ADD 25355.80793477  .00001270  00000+0  42947-3 0  9998", "line2": "2 34908  74.0578   6.9921 0040488  20.3399 160.9032 14.37423542874098"}}, "geometry": {"type": "Point", "coordinates": [36.96723115334703, 61.119446894836386]}}, {"type": "Feature", "properties": {"norad_id": 34909, "name": "COSMOS 2251 DEB", "group": "cosmos-2251-debris", "lat": 3.2837356142372447, "lon": -123.52307376515374, "alt_km": 581.1589081062284, "timestamp": "2025-12-22T11:33:20.835517+00:00", "meta": {"OBJECT_NAME": "COSMOS 2251 DEB", "OBJECT_ID": "1993-036ADE", "EPOCH": "2025-12-22T04:15:34.679808", "MEAN_MOTION": 14.7790717, "ECCENTRICITY": 0.0083872, "INCLINATION": 74.0141, "RA_OF_ASC_NODE": 58.0168, "ARG_OF_PERICENTER": 191.6424, "MEAN_ANOMALY": 168.2815, "EPHEMERIS_TYPE": 0, "CLASSIFICATION_TYPE": "U", "NORAD_CAT_ID": 34909, "ELEMENT_SET_NO": 999, "REV_AT_EPOCH": 66991, "BSTAR": 0.00050699, "MEAN_MOTION_DOT": 3.836e-05, "MEAN_MOTION_DDOT": 0}, "tle": {"line1": "1 34909U 93036ADE 25356.17748472  .00003836  00000+0  50699-3 0  9998", "line2": "2 34909  74.0141  58.0168 0083872 191.6424 168.2815 14.77907170669912"}}, "geometry": {"type": "Point", "coordinates": [-123.52307376515374, 3.2837356142372447]}}]}